{
"type": "FeatureCollection",
"name": "PH - ALL TC TRACKS 2024",
"crs": { "type": "name", "properties": { "name": "urn:ogc:def:crs:OGC:1.3:CRS84" } },
"features": [
{ "type": "Feature", "properties": { "fid": 1, "begin": "2", "end": "8", "name": "QUERUBIN", "category": "TD" }, "geometry": { "type": "LineString", "coordinates": [ [ 127.3, 6.1 ], [ 127.4, 7.0 ], [ 127.7, 7.5 ], [ 128.1, 8.5 ], [ 128.1, 8.5 ], [ 127.8, 8.8 ], [ 127.4, 9.4 ] ] } },
{ "type": "Feature", "properties": { "fid": 2, "begin": "2", "end": "38", "name": "AGHON", "category": "TY" }, "geometry": { "type": "LineString", "coordinates": [ [ 130.4, 7.6 ], [ 128.7, 8.0 ], [ 127.9, 8.1 ], [ 127.7, 8.6 ], [ 127.4, 9.1 ], [ 126.9, 9.6 ], [ 126.5, 10.0 ], [ 125.9, 10.7 ], [ 125.3, 11.3 ], [ 124.8, 11.8 ], [ 123.8, 12.3 ], [ 123.2, 12.4 ], [ 122.8, 12.6 ], [ 122.6, 12.8 ], [ 122.3, 13.1 ], [ 122.1, 13.3 ], [ 121.9, 13.6 ], [ 121.6, 14.0 ], [ 121.4, 14.0 ], [ 121.6, 14.1 ], [ 121.8, 14.3 ], [ 122.0, 14.6 ], [ 122.2, 14.9 ], [ 122.3, 15.2 ], [ 122.4, 15.5 ], [ 122.6, 15.7 ], [ 122.8, 15.9 ], [ 123.4, 16.3 ], [ 123.9, 16.9 ], [ 124.6, 17.7 ], [ 125.5, 18.6 ], [ 126.8, 19.9 ], [ 128.1, 21.2 ], [ 129.5, 22.8 ], [ 129.8, 23.3 ], [ 131.9, 25.5 ], [ 133.7, 27.4 ] ] } },
{ "type": "Feature", "properties": { "fid": 3, "begin": "2", "end": "7", "name": "ROMINA", "category": "TD" }, "geometry": { "type": "LineString", "coordinates": [ [ 114.7, 7.8 ], [ 114.7, 8.5 ], [ 114.5, 9.4 ], [ 113.6, 10.2 ], [ 112.8, 10.7 ], [ 112.8, 10.8 ] ] } },
{ "type": "Feature", "properties": { "fid": 4, "begin": "2", "end": "11", "name": "FERDIE", "category": "TS" }, "geometry": { "type": "LineString", "coordinates": [ [ 145.0, 12.7 ], [ 142.3, 14.0 ], [ 140.4, 15.4 ], [ 140.0, 18.1 ], [ 138.6, 20.6 ], [ 136.2, 22.6 ], [ 133.6, 24.8 ], [ 132.5, 25.5 ], [ 129.6, 27.4 ], [ 127.0, 28.8 ] ] } },
{ "type": "Feature", "properties": { "fid": 5, "begin": "2", "end": "9", "name": "BUTCHOY", "category": "TD" }, "geometry": { "type": "LineString", "coordinates": [ [ 116.1, 14.3 ], [ 114.7, 15.1 ], [ 113.1, 15.5 ], [ 112.2, 15.8 ], [ 111.1, 16.5 ], [ 110.4, 17.6 ], [ 110.0, 18.4 ], [ 109.7, 19.3 ] ] } },
{ "type": "Feature", "properties": { "fid": 6, "begin": "2", "end": "28", "name": "CARINA", "category": "STY" }, "geometry": { "type": "LineString", "coordinates": [ [ 131.4, 13.3 ], [ 129.9, 14.7 ], [ 128.6, 15.3 ], [ 128.0, 15.8 ], [ 127.2, 16.7 ], [ 126.7, 16.7 ], [ 125.4, 16.4 ], [ 125.5, 16.9 ], [ 125.7, 16.9 ], [ 125.7, 17.2 ], [ 125.1, 17.4 ], [ 125.7, 17.9 ], [ 125.2, 18.5 ], [ 125.2, 18.9 ], [ 125.0, 20.1 ], [ 125.0, 21.1 ], [ 124.4, 22.4 ], [ 123.5, 22.9 ], [ 123.0, 23.7 ], [ 122.1, 24.2 ], [ 122.0, 23.8 ], [ 121.0, 24.9 ], [ 120.0, 25.1 ], [ 119.6, 25.3 ], [ 119.01, 25.8 ], [ 118.2, 26.6 ], [ 117.2, 28.1 ] ] } },
{ "type": "Feature", "properties": { "fid": 7, "begin": "2", "end": "5", "name": "DINDO", "category": "TS" }, "geometry": { "type": "LineString", "coordinates": [ [ 125.3, 24.7 ], [ 126.1, 25.0 ], [ 125.9, 27.0 ], [ 125.8, 30.3 ] ] } },
{ "type": "Feature", "properties": { "fid": 8, "begin": "2", "end": "25", "name": "ENTENG", "category": "STS" }, "geometry": { "type": "LineString", "coordinates": [ [ 126.0, 12.6 ], [ 125.5, 13.0 ], [ 125.5, 13.0 ], [ 124.5, 13.4 ], [ 124.4, 14.0 ], [ 123.3, 14.5 ], [ 123.0, 14.7 ], [ 122.7, 15.0 ], [ 122.4, 15.5 ], [ 121.9, 16.4 ], [ 122.0, 17.1 ], [ 121.6, 17.5 ], [ 121.2, 18.0 ], [ 120.4, 18.1 ], [ 120.1, 18.2 ], [ 119.6, 18.4 ], [ 119.0, 18.5 ], [ 118.1, 18.8 ], [ 117.2, 19.0 ], [ 116.1, 18.8 ], [ 115.0, 18.9 ], [ 113.5, 19.3 ], [ 111.7, 19.8 ], [ 109.6, 20.4 ] ] } },
{ "type": "Feature", "properties": { "fid": 9, "begin": "2", "end": "13", "name": "GENER", "category": "TD" }, "geometry": { "type": "LineString", "coordinates": [ [ 125.01, 16.9 ], [ 125.0, 17.2 ], [ 124.8, 17.2 ], [ 124.5, 17.4 ], [ 120.7, 16.7 ], [ 118.3, 17.01 ], [ 116.6, 17.4 ], [ 112.7, 17.01 ], [ 110.1, 17.0 ], [ 108.1, 17.0 ], [ 106.1, 17.2 ], [ 102.8, 17.8 ] ] } },
{ "type": "Feature", "properties": { "fid": 10, "begin": "2", "end": "8", "name": "IGME", "category": "TD" }, "geometry": { "type": "LineString", "coordinates": [ [ 127.0, 21.8 ], [ 126.6, 22.6 ], [ 127.0, 23.5 ], [ 124.3, 24.3 ], [ 122.7, 24.9 ], [ 122.8, 25.3 ], [ 123.0, 26.1 ] ] } },
{ "type": "Feature", "properties": { "fid": 11, "begin": "2", "end": "35", "name": "JULIAN", "category": "STY" }, "geometry": { "type": "LineString", "coordinates": [ [ 126.9, 20.9 ], [ 126.0, 19.9 ], [ 125.6, 19.3 ], [ 125.4, 18.6 ], [ 126.01, 18.8 ], [ 125.2, 18.6 ], [ 124.9, 18.4 ], [ 124.5, 18.6 ], [ 124.3, 18.6 ], [ 124.1, 19.1 ], [ 123.7, 19.5 ], [ 123.2, 19.7 ], [ 122.9, 19.7 ], [ 122.6, 19.8 ], [ 122.2, 19.9 ], [ 122.2, 19.9 ], [ 121.8, 20.2 ], [ 121.4, 20.5 ], [ 121.0, 20.5 ], [ 120.4, 20.5 ], [ 119.9, 20.6 ], [ 119.6, 20.7 ], [ 119.5, 21.0 ], [ 119.3, 21.3 ], [ 119.2, 21.4 ], [ 119.5, 21.7 ], [ 119.5, 22.0 ], [ 119.6, 22.0 ], [ 119.8, 22.2 ], [ 120.2, 22.4 ], [ 120.5, 22.7 ], [ 120.6, 22.6 ], [ 120.6, 22.6 ], [ 121.6, 25.1 ] ] } },
{ "type": "Feature", "properties": { "fid": 12, "begin": "2", "end": "37", "name": "KRISTINE", "category": "STS" }, "geometry": { "type": "LineString", "coordinates": [ [ 134.3, 14.01 ], [ 133.9, 13.6 ], [ 132.6, 13.2 ], [ 131.6, 13.2 ], [ 129.0, 13.2 ], [ 127.8, 13.2 ], [ 127.3, 13.7 ], [ 126.6, 14.3 ], [ 126.1, 14.9 ], [ 124.8, 15.1 ], [ 124.5, 15.4 ], [ 124.01, 16.1 ], [ 123.6, 16.1 ], [ 123.3, 16.5 ], [ 123.31, 16.9 ], [ 122.8, 17.2 ], [ 122.3, 17.3 ], [ 121.8, 17.3 ], [ 121.3, 17.01 ], [ 120.9, 16.9 ], [ 120.3, 17.01 ], [ 120.2, 17.1 ], [ 120.1, 16.7 ], [ 120.1, 16.6 ], [ 119.3, 16.7 ], [ 119.3, 17.1 ], [ 118.1, 17.4 ], [ 116.6, 17.7 ], [ 115.4, 17.4 ], [ 113.7, 17.01 ], [ 112.6, 17.1 ], [ 108.6, 16.8 ], [ 108.6, 16.8 ], [ 108.4, 16.3 ], [ 108.8, 15.7 ], [ 109.3, 16.1 ] ] } },
{ "type": "Feature", "properties": { "fid": 13, "begin": "2", "end": "36", "name": "LEON", "category": "STY" }, "geometry": { "type": "LineString", "coordinates": [ [ 143.6, 15.5 ], [ 140.6, 15.5 ], [ 138.9, 16.6 ], [ 137.4, 16.4 ], [ 134.8, 16.6 ], [ 133.3, 16.4 ], [ 132.2, 16.6 ], [ 131.5, 16.7 ], [ 130.7, 16.5 ], [ 130.01, 16.6 ], [ 129.01, 16.8 ], [ 128.5, 17.01 ], [ 128.3, 16.8 ], [ 127.8, 17.3 ], [ 127.01, 17.5 ], [ 126.5, 18.0 ], [ 125.9, 18.4 ], [ 125.2, 18.9 ], [ 124.8, 19.3 ], [ 124.0, 19.6 ], [ 124.0, 20.0 ], [ 123.8, 20.3 ], [ 123.3, 20.5 ], [ 123.0, 20.8 ], [ 122.6, 21.3 ], [ 122.3, 21.7 ], [ 121.9, 22.2 ], [ 120.6, 23.4 ], [ 120.2, 24.5 ], [ 120.2, 25.5 ], [ 120.3, 26.4 ], [ 120.3, 26.4 ], [ 120.3, 26.4 ], [ 121.4, 28.0 ], [ 124.2, 30.5 ] ] } },
{ "type": "Feature", "properties": { "fid": 14, "begin": "2", "end": "39", "name": "MARCE", "category": "TY" }, "geometry": { "type": "LineString", "coordinates": [ [ 135.5, 11.1 ], [ 134.3, 11.5 ], [ 132.5, 12.4 ], [ 131.0, 13.1 ], [ 129.6, 14.5 ], [ 128.5, 15.7 ], [ 127.1, 16.4 ], [ 126.2, 17.2 ], [ 125.5, 17.5 ], [ 125.0, 17.9 ], [ 124.9, 17.9 ], [ 124.6, 18.1 ], [ 124.4, 18.0 ], [ 124.4, 18.0 ], [ 124.1, 18.2 ], [ 123.9, 18.3 ], [ 123.6, 18.2 ], [ 123.5, 18.3 ], [ 123.3, 18.4 ], [ 122.7, 18.5 ], [ 122.5, 18.5 ], [ 122.0, 18.5 ], [ 121.7, 18.6 ], [ 121.1, 18.5 ], [ 120.6, 18.4 ], [ 120.2, 18.4 ], [ 119.6, 18.4 ], [ 119.6, 18.4 ], [ 118.2, 18.4 ], [ 118.2, 18.4 ], [ 118.2, 18.4 ], [ 117.1, 18.3 ], [ 115.1, 18.7 ], [ 113.8, 19.1 ], [ 113.1, 19.2 ], [ 112.5, 18.9 ], [ 111.4, 18.3 ], [ 109.6, 16.0 ] ] } },
{ "type": "Feature", "properties": { "fid": 15, "begin": "2", "end": "29", "name": "NIKA", "category": "TY" }, "geometry": { "type": "LineString", "coordinates": [ [ 132.3, 14.5 ], [ 131.0, 14.4 ], [ 129.9, 14.6 ], [ 128.1, 15.0 ], [ 126.3, 15.1 ], [ 125.6, 15.1 ], [ 125.2, 15.2 ], [ 124.7, 15.4 ], [ 124.1, 15.6 ], [ 123.4, 15.8 ], [ 123.0, 16.0 ], [ 122.5, 16.4 ], [ 121.8, 16.5 ], [ 121.2, 16.8 ], [ 120.8, 17.1 ], [ 120.3, 17.7 ], [ 119.7, 18.0 ], [ 118.8, 18.3 ], [ 118.5, 18.8 ], [ 118.01, 19.4 ], [ 118.01, 19.4 ], [ 118.01, 19.4 ], [ 116.7, 19.7 ], [ 115.4, 20.1 ], [ 114.1, 20.3 ], [ 113.1, 20.3 ], [ 112.4, 20.0 ], [ 112.1, 19.3 ] ] } },
{ "type": "Feature", "properties": { "fid": 16, "begin": "2", "end": "30", "name": "OFEL", "category": "STY" }, "geometry": { "type": "LineString", "coordinates": [ [ 140.6, 11.4 ], [ 139.3, 12.1 ], [ 138.6, 12.2 ], [ 136.3, 12.2 ], [ 134.8, 13.0 ], [ 133.01, 13.8 ], [ 131.4, 14.1 ], [ 130.0, 14.5 ], [ 128.5, 14.6 ], [ 127.3, 15.3 ], [ 126.1, 15.7 ], [ 124.9, 16.2 ], [ 124.2, 16.6 ], [ 123.7, 16.7 ], [ 122.7, 17.5 ], [ 122.2, 17.8 ], [ 122.01, 18.2 ], [ 121.9, 18.3 ], [ 121.5, 18.7 ], [ 120.8, 19.5 ], [ 120.7, 19.8 ], [ 120.01, 20.6 ], [ 119.9, 21.2 ], [ 120.0, 21.8 ], [ 120.1, 22.2 ], [ 120.3, 22.2 ], [ 120.3, 22.2 ], [ 120.8, 22.8 ], [ 123.0, 24.5 ] ] } },
{ "type": "Feature", "properties": { "fid": 17, "begin": "2", "end": "34", "name": "PEPITO", "category": "STY" }, "geometry": { "type": "LineString", "coordinates": [ [ 145.0, 13.0 ], [ 143.5, 12.3 ], [ 141.1, 11.8 ], [ 138.01, 10.5 ], [ 134.4, 10.5 ], [ 133.01, 10.4 ], [ 131.5, 10.6 ], [ 130.0, 11.1 ], [ 128.5, 11.5 ], [ 128.0, 11.8 ], [ 127.4, 12.2 ], [ 126.8, 12.5 ], [ 126.3, 12.8 ], [ 125.8, 13.1 ], [ 125.3, 13.4 ], [ 124.8, 13.8 ], [ 124.3, 13.9 ], [ 123.9, 14.2 ], [ 123.6, 14.6 ], [ 123.1, 14.9 ], [ 122.6, 15.2 ], [ 122.1, 15.6 ], [ 121.5, 16.1 ], [ 120.9, 16.2 ], [ 120.2, 16.6 ], [ 119.6, 17.4 ], [ 119.1, 17.8 ], [ 118.01, 18.2 ], [ 116.3, 18.6 ], [ 114.1, 18.6 ], [ 112.3, 18.2 ], [ 111.1, 18.0 ], [ 109.5, 17.2 ] ] } },
{ "type": "Feature", "properties": { "fid": 18, "begin": "2", "end": "11", "name": "HELEN", "category": "TS" }, "geometry": { "type": "LineString", "coordinates": [ [ 143.9, 14.8 ], [ 144.01, 15.2 ], [ 143.1, 15.5 ], [ 141.0, 16.9 ], [ 134.3, 21.6 ], [ 132.8, 22.5 ], [ 131.7, 23.5 ], [ 129.9, 24.6 ], [ 125.9, 27.0 ], [ 122.3, 28.5 ] ] } }
]
}
